NORAD_CAT_ID,OBJECT_NAME,OBJECT_TYPE,EPOCH,MEAN_MOTION,ECCENTRICITY,INCLINATION,RA_OF_ASC_NODE,ARG_OF_PERICENTER,MEAN_ANOMALY,BSTAR,MEAN_MOTION_DOT,MEAN_MOTION_DDOT,TLE_LINE0,TLE_LINE1,TLE_LINE2,SEMIMAJOR_AXIS,PERIOD,APOGEE,PERIGEE,DECAYED
56466.0,STARLINK-6053,PAYLOAD,2023-08-14 11:22:20,14.98330742,0.0003206,70.0005,349.8971,266.8261,93.2532,-2.3425e-05,-3.73e-06,0.0,0 STARLINK-6053,1 56466U 23064U   23226.47385020 -.00000373  00000-0 -23425-4 0  9991,2 56466  70.0005 349.8971 0003206 266.8261  93.2532 14.98330742 15072,6950.191,96.107,574.284,569.827,0.0
56466.0,STARLINK-6053,PAYLOAD,2023-08-15 17:48:53,14.98345855,0.0003148,70.0008,346.6982,273.8703,86.2096,-0.00018219,-2.267e-05,0.0,0 STARLINK-6053,1 56466U 23064U   23227.74228572 -.00002267  00000-0 -18219-3 0  9998,2 56466  70.0008 346.6982 0003148 273.8703  86.2096 14.98345855 15265,6950.144,96.106,574.197,569.821,0.0
56466.0,STARLINK-6053,PAYLOAD,2023-08-16 01:49:34,14.98328943,0.0003264,70.0,345.8554,271.4692,88.6093,6.3352e-06,-1.7e-07,0.0,0 STARLINK-6053,1 56466U 23064U   23228.07608924 -.00000017  00000-0  63352-5 0  9998,2 56466  70.0000 345.8554 0003264 271.4692  88.6093 14.98328943 15311,6950.196,96.107,574.33,569.793,0.0
56466.0,STARLINK-6053,PAYLOAD,2023-08-17 09:52:15,14.9833321,0.0003123,70.0,342.489,272.7106,87.3696,-3.936e-06,-1.4e-06,0.0,0 STARLINK-6053,1 56466U 23064U   23229.41128576 -.00000140  00000-0 -39360-5 0  9997,2 56466  70.0000 342.4890 0003123 272.7106  87.3696 14.98333210 15515,6950.183,96.107,574.219,569.877,0.0
56466.0,STARLINK-6053,PAYLOAD,2023-08-18 00:17:27,14.98349338,0.0003161,69.9999,340.974,271.0718,89.0079,-0.00026849,-3.297e-05,0.0,0 STARLINK-6053,1 56466U 23064U   23230.01212154 -.00003297  00000-0 -26849-3 0  9993,2 56466  69.9999 340.9740 0003161 271.0718  89.0079 14.98349338 15601,6950.133,96.106,574.195,569.801,0.0
56466.0,STARLINK-6053,PAYLOAD,2023-08-18 09:54:16,14.98326437,0.0003064,70.0002,339.9641,271.5405,88.5403,-5.3926e-05,-7.36e-06,0.0,0 STARLINK-6053,1 56466U 23064U   23230.41269061 -.00000736  00000-0 -53926-4 0  9998,2 56466  70.0002 339.9641 0003064 271.5405  88.5403 14.98326437 15663,6950.204,96.107,574.198,569.939,0.0
56466.0,STARLINK-6053,PAYLOAD,2023-08-19 09:56:17,14.98330992,0.000306,70.0006,337.4404,264.5119,95.5691,1.1728e-05,4.7e-07,0.0,0 STARLINK-6053,1 56466U 23064U   23231.41408589  .00000047  00000-0  11728-4 0  9996,2 56466  70.0006 337.4404 0003060 264.5119  95.5691 14.98330992 15812,6950.19,96.107,574.182,569.928,0.0
56466.0,STARLINK-6053,PAYLOAD,2023-08-20 09:58:18,14.98326622,0.0003164,70.0002,334.9153,265.7897,94.29,3.4787e-05,3.22e-06,0.0,0 STARLINK-6053,1 56466U 23064U   23232.41548764  .00000322  00000-0  34787-4 0  9993,2 56466  70.0002 334.9153 0003164 265.7897  94.2900 14.98326622 15962,6950.203,96.107,574.267,569.869,0.0
56466.0,STARLINK-6053,PAYLOAD,2023-08-21 10:00:18,14.98340307,0.0003205,69.9996,332.3899,269.998,90.0812,-0.0001881,-2.337e-05,0.0,0 STARLINK-6053,1 56466U 23064U   23233.41688485 -.00002337  00000-0 -18810-3 0  9997,2 56466  69.9996 332.3899 0003205 269.9980  90.0812 14.98340307 16115,6950.161,96.106,574.254,569.798,0.0
56466.0,STARLINK-6053,PAYLOAD,2023-08-22 10:02:20,14.98328841,0.0003183,70.0002,329.865,268.3952,91.6842,-2.3156e-05,-3.69e-06,0.0,0 STARLINK-6053,1 56466U 23064U   23234.41828754 -.00000369  00000-0 -23156-4 0  9996,2 56466  70.0002 329.8650 0003183 268.3952  91.6842 14.98328841 16264,6950.196,96.107,574.274,569.849,0.0
56466.0,STARLINK-6053,PAYLOAD,2023-08-23 11:40:29,14.98329625,0.0002963,70.0006,327.1721,269.9656,90.1164,-5.9457e-05,-8.02e-06,0.0,0 STARLINK-6053,1 56466U 23064U   23235.48644820 -.00000802  00000-0 -59457-4 0  9999,2 56466  70.0006 327.1721 0002963 269.9656  90.1164 14.98329625 16421,6950.194,96.107,574.118,570.0,0.0
56466.0,STARLINK-6053,PAYLOAD,2023-08-24 18:07:01,14.98333413,0.0003185,70.0,323.9732,271.9106,88.1688,6.3755e-05,6.68e-06,0.0,0 STARLINK-6053,1 56466U 23064U   23236.75488148  .00000668  00000-0  63755-4 0  9993,2 56466  70.0000 323.9732 0003185 271.9106  88.1688 14.98333413 16610,6950.182,96.107,574.261,569.834,0.0
56466.0,STARLINK-6053,PAYLOAD,2023-08-25 10:08:22,14.98327064,0.0003253,69.9999,322.2905,273.6553,86.4234,-4.8872e-06,-1.51e-06,0.0,0 STARLINK-6053,1 56466U 23064U   23237.42248713 -.00000151  00000-0 -48872-5 0  9993,2 56466  69.9999 322.2905 0003253 273.6553  86.4234 14.98327064 16713,6950.202,96.107,574.328,569.806,0.0
56466.0,STARLINK-6053,PAYLOAD,2023-08-25 13:20:38,14.98328841,0.0003216,69.9998,321.9535,273.0523,87.0268,1.7077e-05,1.11e-06,0.0,0 STARLINK-6053,1 56466U 23064U   23237.55600543  .00000111  00000-0  17077-4 0  9996,2 56466  69.9998 321.9535 0003216 273.0523  87.0268 14.98328841 16377,6950.196,96.107,574.297,569.826,0.0
56466.0,STARLINK-6053,PAYLOAD,2023-08-25 18:09:02,14.98332031,0.0003251,69.9997,321.4484,273.443,86.6358,4.6078e-05,4.57e-06,0.0,0 STARLINK-6053,1 56466U 23064U   23237.75628249  .00000457  00000-0  46078-4 0  9997,2 56466  69.9997 321.4484 0003251 273.4430  86.6358 14.98332031 16409,6950.187,96.107,574.311,569.792,0.0
56466.0,STARLINK-6053,PAYLOAD,2023-08-26 10:10:23,14.98329978,0.0003291,69.9992,319.7648,270.9061,89.1721,-7.5515e-05,-9.94e-06,0.0,0 STARLINK-6053,1 56466U 23064U   23238.42388658 -.00000994  00000-0 -75515-4 0  9995,2 56466  69.9992 319.7648 0003291 270.9061  89.1721 14.98329978 16860,6950.193,96.107,574.345,569.771,0.0
56466.0,STARLINK-6053,PAYLOAD,2023-08-26 11:46:31,14.98329634,0.0003293,69.9992,319.5965,270.7599,89.3182,-7.7576e-05,-1.019e-05,0.0,0 STARLINK-6053,1 56466U 23064U   23238.49064684 -.00001019  00000-0 -77576-4 0  9990,2 56466  69.9992 319.5965 0003293 270.7599  89.3182 14.98329634 16510,6950.194,96.107,574.348,569.77,0.0
56466.0,STARLINK-6053,PAYLOAD,2023-08-26 18:11:03,14.98334205,0.0003255,69.999,318.9228,267.1102,92.9684,1.5085e-05,8.7e-07,0.0,0 STARLINK-6053,1 56466U 23064U   23238.75768055  .00000087  00000-0  15085-4 0  9991,2 56466  69.9990 318.9228 0003255 267.1102  92.9684 14.98334205 16552,6950.18,96.107,574.307,569.783,0.0
56466.0,STARLINK-6053,PAYLOAD,2023-08-27 10:12:24,14.98329468,0.0003073,69.9992,317.2382,266.2167,93.8641,-4.4237e-05,-6.21e-06,0.0,0 STARLINK-6053,1 56466U 23064U   23239.42528519 -.00000621  00000-0 -44237-4 0  9992,2 56466  69.9992 317.2382 0003073 266.2167  93.8641 14.98329468 17016,6950.195,96.107,574.195,569.924,0.0
56466.0,STARLINK-6053,PAYLOAD,2023-08-27 16:36:56,14.98331825,0.0003088,69.9992,316.5655,265.1358,94.9449,3.9768e-05,3.82e-06,0.0,0 STARLINK-6053,1 56466U 23064U   23239.69232139  .00000382  00000-0  39768-4 0  9996,2 56466  69.9992 316.5655 0003088 265.1358  94.9449 14.98331825 16698,6950.187,96.107,574.198,569.906,0.0
56466.0,STARLINK-6053,PAYLOAD,2023-08-28 16:38:57,14.98335923,0.0002819,69.9991,314.0415,267.3747,92.709,7.6126e-05,8.16e-06,0.0,0 STARLINK-6053,1 56466U 23064U   23240.69371653  .00000816  00000-0  76126-4 0  9994,2 56466  69.9991 314.0415 0002819 267.3747  92.7090 14.98335923 17200,6950.175,96.107,573.999,570.08,0.0
56466.0,STARLINK-6053,PAYLOAD,2023-08-29 10:16:26,14.98327704,0.0003076,69.9995,312.1912,266.6609,93.4198,-5.8727e-06,-1.63e-06,0.0,0 STARLINK-6053,1 56466U 23064U   23241.42808265 -.00000163  00000-0 -58727-5 0  9995,2 56466  69.9995 312.1912 0003076 266.6609  93.4198 14.98327704 17317,6950.2,96.107,574.203,569.927,0.0
56466.0,STARLINK-6053,PAYLOAD,2023-08-29 18:17:06,14.9832606,0.0003159,69.9991,311.3485,269.8509,90.2288,7.7533e-05,8.32e-06,0.0,0 STARLINK-6053,1 56466U 23064U   23241.76188176  .00000832  00000-0  77533-4 0  9990,2 56466  69.9991 311.3485 0003159 269.8509  90.2288 14.98326060 17000,6950.205,96.107,574.266,569.875,0.0
56466.0,STARLINK-6053,PAYLOAD,2023-08-30 16:42:59,14.98332424,0.0003285,69.9987,308.9916,271.0643,89.0139,-1.4572e-05,-2.67e-06,0.0,0 STARLINK-6053,1 56466U 23064U   23242.69651939 -.00000267  00000-0 -14572-4 0  9993,2 56466  69.9987 308.9916 0003285 271.0643  89.0139 14.98332424 17507,6950.185,96.107,574.334,569.767,0.0
56466.0,STARLINK-6053,PAYLOAD,2023-09-01 10:22:28,14.98330596,0.0003199,69.9981,304.6133,261.4487,98.6309,5.9452e-05,6.16e-06,0.0,0 STARLINK-6053,1 56466U 23064U   23244.43227756  .00000616  00000-0  59452-4 0  9995,2 56466  69.9981 304.6133 0003199 261.4487  98.6309 14.98330596 17769,6950.191,96.107,574.279,569.833,0.0
56466.0,STARLINK-6053,PAYLOAD,2023-09-01 13:34:44,14.98333151,0.0003444,69.9982,304.278,270.4163,89.6601,5.0667e-05,5.12e-06,0.0,0 STARLINK-6053,1 56466U 23064U   23244.56579631  .00000512  00000-0  50667-4 0  9995,2 56466  69.9982 304.2780 0003444 270.4163  89.6601 14.98333151 17426,6950.183,96.107,574.442,569.655,0.0
56466.0,STARLINK-6053,PAYLOAD,2023-09-02 10:24:29,14.98333778,0.0003345,69.9926,302.089,271.2052,88.8724,-1.221e-05,-2.39e-06,0.0,0 STARLINK-6053,1 56466U 23064U   23245.43367719 -.00000239  00000-0 -12210-4 0  9994,2 56466  69.9926 302.0890 0003345 271.2052  88.8724 14.98333778 17914,6950.181,96.107,574.371,569.721,0.0
56466.0,STARLINK-6053,PAYLOAD,2023-09-02 12:00:37,14.98333816,0.0003484,69.9976,301.9207,271.3658,88.7102,-3.6603e-05,-5.3e-06,0.0,0 STARLINK-6053,1 56466U 23064U   23245.50043820 -.00000530  00000-0 -36603-4 0  9992,2 56466  69.9976 301.9207 0003484 271.3658  88.7102 14.98333816 17569,6950.181,96.107,574.468,569.625,0.0
56466.0,STARLINK-6053,PAYLOAD,2023-09-02 13:36:45,14.98336145,0.0003487,69.9988,301.7526,271.7696,88.3064,-1.8717e-05,-3.16e-06,0.0,0 STARLINK-6053,1 56466U 23064U   23245.56719616 -.00000316  00000-0 -18717-4 0  9999,2 56466  69.9988 301.7526 0003487 271.7696  88.3064 14.98336145 17575,6950.174,96.107,574.462,569.615,0.0
56466.0,STARLINK-6053,PAYLOAD,2023-09-03 10:26:30,14.98336005,0.0003473,69.9985,299.5643,271.6579,88.4182,-1.0489e-05,-2.18e-06,0.0,0 STARLINK-6053,1 56466U 23064U   23246.43507299 -.00000218  00000-0 -10489-4 0  9997,2 56466  69.9985 299.5643 0003473 271.6579  88.4182 14.98336005 18062,6950.174,96.107,574.453,569.626,0.0
